H1 CPF  1  DGF 2022 10 31 18  8041 larets     NONE      
H2   304206 5557    27944 2022 10 14 00 00 00 2022 10 21 00 00 00    30 1 1  0 0 0
H5  0.0650
H9
10 0 59866  64800.000000  0      -1310594.588        174429.243      -6935488.489
10 0 59866  64830.000000  0      -1427650.084        367010.394      -6904829.852
10 0 59866  64860.000000  0      -1542421.715        559728.307      -6867150.723
10 0 59866  64890.000000  0      -1654793.424        752378.209      -6822489.052
10 0 59866  64920.000000  0      -1764652.443        944754.864      -6770889.825
10 0 59866  64950.000000  0      -1871889.410       1136652.798      -6712405.017
10 0 59866  64980.000000  0      -1976398.471       1327866.506      -6647093.545
10 0 59866  65010.000000  0      -2078077.388       1518190.673      -6575021.221
10 0 59866  65040.000000  0      -2176827.641       1707420.390      -6496260.687
10 0 59866  65070.000000  0      -2272554.525       1895351.376      -6410891.353
10 0 59866  65100.000000  0      -2365167.242       2081780.201      -6318999.324
10 0 59866  65130.000000  0      -2454578.989       2266504.504      -6220677.314
10 0 59866  65160.000000  0      -2540707.040       2449323.215      -6116024.562
10 0 59866  65190.000000  0      -2623472.820       2630036.770      -6005146.738
10 0 59866  65220.000000  0      -2702801.983       2808447.335      -5888155.847
10 0 59866  65250.000000  0      -2778624.479       2984359.020      -5765170.120
10 0 59866  65280.000000  0      -2850874.619       3157578.099      -5636313.907
10 0 59866  65310.000000  0      -2919491.137       3327913.227      -5501717.554
10 0 59866  65340.000000  0      -2984417.241       3495175.654      -5361517.280
10 0 59866  65370.000000  0      -3045600.666       3659179.441      -5215855.044
10 0 59866  65400.000000  0      -3102993.715       3819741.668      -5064878.405
10 0 59866  65430.000000  0      -3156553.296       3976682.643      -4908740.379
10 0 59866  65460.000000  0      -3206240.960       4129826.110      -4747599.289
10 0 59866  65490.000000  0      -3252022.919       4278999.451      -4581618.605
10 0 59866  65520.000000  0      -3293870.076       4424033.883      -4410966.785
10 0 59866  65550.000000  0      -3331758.037       4564764.657      -4235817.104
10 0 59866  65580.000000  0      -3365667.120       4701031.247      -4056347.481
10 0 59866  65610.000000  0      -3395582.355       4832677.538      -3872740.304
10 0 59866  65640.000000  0      -3421493.491       4959552.007      -3685182.245
10 0 59866  65670.000000  0      -3443394.983       5081507.905      -3493864.082
10 0 59866  65700.000000  0      -3461285.988       5198403.435      -3298980.501
10 0 59866  65730.000000  0      -3475170.346       5310101.921      -3100729.903
10 0 59866  65760.000000  0      -3485056.558       5416471.980      -2899314.197
10 0 59866  65790.000000  0      -3490957.760       5517387.676      -2694938.598
10 0 59866  65820.000000  0      -3492891.686       5612728.681      -2487811.417
10 0 59866  65850.000000  0      -3490880.632       5702380.421      -2278143.842
10 0 59866  65880.000000  0      -3484951.407       5786234.224      -2066149.724
10 0 59866  65910.000000  0      -3475135.286       5864187.456      -1852045.351
10 0 59866  65940.000000  0      -3461467.947       5936143.649      -1636049.224
10 0 59866  65970.000000  0      -3443989.416       6002012.627      -1418381.828
10 0 59866  66000.000000  0      -3422743.989       6061710.615      -1199265.397
10 0 59866  66030.000000  0      -3397780.171       6115160.341       -978923.691
10 0 59866  66060.000000  0      -3369150.594       6162291.141       -757581.761
10 0 59866  66090.000000  0      -3336911.943       6203039.058       -535465.723
10 0 59866  66120.000000  0      -3301124.870       6237346.929       -312802.513
10 0 59866  66150.000000  0      -3261853.904       6265164.465        -89819.645
10 0 59866  66180.000000  0      -3219167.355       6286448.329        133255.029
10 0 59866  66210.000000  0      -3173137.212       6301162.184        356193.564
10 0 59866  66240.000000  0      -3123839.037       6309276.759        578768.160
10 0 59866  66270.000000  0      -3071351.856       6310769.886        800751.410
10 0 59866  66300.000000  0      -3015758.041       6305626.540       1021916.534
10 0 59866  66330.000000  0      -2957143.193       6293838.864       1242037.624
10 0 59866  66360.000000  0      -2895596.017       6275406.185       1460889.880
10 0 59866  66390.000000  0      -2831208.198       6250335.028       1678249.842
10 0 59866  66420.000000  0      -2764074.275       6218639.112       1893895.629
10 0 59866  66450.000000  0      -2694291.508       6180339.348       2107607.169
10 0 59866  66480.000000  0      -2621959.745       6135463.819       2319166.424
10 0 59866  66510.000000  0      -2547181.284       6084047.757       2528357.622
10 0 59866  66540.000000  0      -2470060.737       6026133.514       2734967.474
10 0 59866  66570.000000  0      -2390704.887       5961770.521       2938785.397
10 0 59866  66600.000000  0      -2309222.550       5891015.241       3139603.729
10 0 59866  66630.000000  0      -2225724.423       5813931.116       3337217.942
10 0 59866  66660.000000  0      -2140322.946       5730588.501       3531426.854
10 0 59866  66690.000000  0      -2053132.151       5641064.591       3722032.834
10 0 59866  66720.000000  0      -1964267.514       5545443.347       3908842.001
10 0 59866  66750.000000  0      -1873845.807       5443815.405       4091664.419
10 0 59866  66780.000000  0      -1781984.946       5336277.984       4270314.294
10 0 59866  66810.000000  0      -1688803.844       5222934.790       4444610.156
10 0 59866  66840.000000  0      -1594422.257       5103895.899       4614375.048
10 0 59866  66870.000000  0      -1498960.626       4979277.649       4779436.697
10 0 59866  66900.000000  0      -1402539.933       4849202.512       4939627.691
10 0 59866  66930.000000  0      -1305281.542       4713798.967       5094785.633
10 0 59866  66960.000000  0      -1207307.054       4573201.366       5244753.307
10 0 59866  66990.000000  0      -1108738.158       4427549.793       5389378.827
10 0 59866  67020.000000  0      -1009696.486       4276989.920       5528515.789
10 0 59866  67050.000000  0       -910303.462       4121672.856       5662023.409
10 0 59866  67080.000000  0       -810680.159       3961754.985       5789766.666
10 0 59866  67110.000000  0       -710947.151       3797397.805       5911616.432
10 0 59866  67140.000000  0       -611224.372       3628767.753       6027449.590
10 0 59866  67170.000000  0       -511630.973       3456036.037       6137149.155
10 0 59866  67200.000000  0       -412285.180       3279378.453       6240604.378
10 0 59866  67230.000000  0       -313304.162       3098975.208       6337710.854
10 0 59866  67260.000000  0       -214803.894       2915010.733       6428370.619
10 0 59866  67290.000000  0       -116899.026       2727673.493       6512492.244
10 0 59866  67320.000000  0        -19702.747       2537155.792       6589990.921
10 0 59866  67350.000000  0         76673.340       2343653.575       6660788.545
10 0 59866  67380.000000  0        172119.343       2147366.223       6724813.784
10 0 59866  67410.000000  0        266527.210       1948496.348       6782002.149
10 0 59866  67440.000000  0        359790.840       1747249.577       6832296.047
10 0 59866  67470.000000  0        451806.208       1543834.347       6875644.836
10 0 59866  67500.000000  0        542471.473       1338461.688       6912004.870
10 0 59866  67530.000000  0        631687.090       1131345.008       6941339.537
10 0 59866  67560.000000  0        719355.918        922699.871       6963619.292
10 0 59866  67590.000000  0        805383.323        712743.782       6978821.688
10 0 59866  67620.000000  0        889677.278        501695.960       6986931.396
10 0 59866  67650.000000  0        972148.462        289777.113       6987940.221
10 0 59866  67680.000000  0       1052710.353         77209.211       6981847.112
10 0 59866  67710.000000  0       1131279.315       -135784.748       6968658.165
10 0 59866  67740.000000  0       1207774.686       -348980.969       6948386.615
10 0 59866  67770.000000  0       1282118.860       -562155.093       6921052.828
10 0 59866  67800.000000  0       1354237.367       -775082.436       6886684.274
10 0 59866  67830.000000  0       1424058.945       -987538.209       6845315.502
10 0 59866  67860.000000  0       1491515.611      -1199297.762       6796988.117
10 0 59866  67890.000000  0       1556542.725      -1410136.816       6741750.738
10 0 59866  67920.000000  0       1619079.056      -1619831.702       6679658.957
10 0 59866  67950.000000  0       1679066.837      -1828159.594       6610775.285
10 0 59866  67980.000000  0       1736451.822      -2034898.753       6535169.097
10 0 59866  68010.000000  0       1791183.332      -2239828.752       6452916.562
10 0 59866  68040.000000  0       1843214.301      -2442730.717       6364100.578
10 0 59866  68070.000000  0       1892501.317      -2643387.562       6268810.691
10 0 59866  68100.000000  0       1939004.659      -2841584.218       6167143.017
10 0 59866  68130.000000  0       1982688.324      -3037107.872       6059200.141
10 0 59866  68160.000000  0       2023520.062      -3229748.188       5945091.026
10 0 59866  68190.000000  0       2061471.390      -3419297.543       5824930.909
10 0 59866  68220.000000  0       2096517.614      -3605551.247       5698841.188
10 0 59866  68250.000000  0       2128637.841      -3788307.765       5566949.307
10 0 59866  68280.000000  0       2157814.988      -3967368.943       5429388.637
10 0 59866  68310.000000  0       2184035.786      -4142540.222       5286298.347
10 0 59866  68340.000000  0       2207290.780      -4313630.855       5137823.270
10 0 59866  68370.000000  0       2227574.327      -4480454.120       4984113.769
99
